{
  "type": "FeatureCollection",
  "features": [
    {
      "type": "Feature",
      "properties": {
        "norad_id": 47005,
        "name": "FENGYUN 1C DEB",
        "group": "fengyun-1c-debris",
        "lat": 6.958535618704678,
        "lon": -111.78228250984607,
        "alt_km": 858.9198880511494,
        "timestamp": "2025-12-04T15:47:54.389287+00:00",
        "meta_object_name": "FENGYUN 1C DEB",
        "meta_object_id": "1999-025FAF",
        "meta_epoch": "2025-12-03T11:49:12.815616",
        "meta_mean_motion": 14.10913141,
        "meta_eccentricity": 0.00635736,
        "meta_inclination": 99.6019,
        "meta_ra_of_asc_node": 65.7889,
        "meta_arg_of_pericenter": 267.3996,
        "meta_mean_anomaly": 108.1197,
        "meta_ephemeris_type": 0,
        "meta_classification_type": "U",
        "meta_norad_cat_id": 47005,
        "meta_element_set_no": 999,
        "meta_rev_at_epoch": 82637,
        "meta_bstar": 0.0032335345,
        "meta_mean_motion_dot": 5.865e-05,
        "meta_mean_motion_ddot": 0,
        "tle_line1": "1 47005U 99025FAF 25337.49250944  .00005865  00000+0  32335-2 0  9999",
        "tle_line2": "2 47005  99.6019  65.7889 0063573 267.3996 108.1197 14.10913141826379"
      },
      "geometry": {
        "type": "Point",
        "coordinates": [
          -111.78228250984607,
          6.958535618704678
        ]
      }
    },
    {
      "type": "Feature",
      "properties": {
        "norad_id": 47007,
        "name": "FENGYUN 1C DEB",
        "group": "fengyun-1c-debris",
        "lat": -15.488010660314679,
        "lon": -156.2167179949701,
        "alt_km": 910.210305143346,
        "timestamp": "2025-12-04T15:47:54.389298+00:00",
        "meta_object_name": "FENGYUN 1C DEB",
        "meta_object_id": "1999-025FAH",
        "meta_epoch": "2025-12-02T20:54:11.445984",
        "meta_mean_motion": 13.97102442,
        "meta_eccentricity": 0.02354948,
        "meta_inclination": 98.2081,
        "meta_ra_of_asc_node": 199.8928,
        "meta_arg_of_pericenter": 81.4238,
        "meta_mean_anomaly": 281.3533,
        "meta_ephemeris_type": 0,
        "meta_classification_type": "U",
        "meta_norad_cat_id": 47007,
        "meta_element_set_no": 999,
        "meta_rev_at_epoch": 78711,
        "meta_bstar": 0.0027434055,
        "meta_mean_motion_dot": 4.814e-05,
        "meta_mean_motion_ddot": 0,
        "tle_line1": "1 47007U 99025FAH 25336.87096581  .00004814  00000+0  27434-2 0  9994",
        "tle_line2": "2 47007  98.2081 199.8928 0235494  81.4238 281.3533 13.97102442787119"
      },
      "geometry": {
        "type": "Point",
        "coordinates": [
          -156.2167179949701,
          -15.488010660314679
        ]
      }
    },
    {
      "type": "Feature",
      "properties": {
        "norad_id": 47009,
        "name": "FENGYUN 1C DEB",
        "group": "fengyun-1c-debris",
        "lat": -49.283643404757576,
        "lon": 132.91002228678266,
        "alt_km": 949.5927669176408,
        "timestamp": "2025-12-04T15:47:54.389308+00:00",
        "meta_object_name": "FENGYUN 1C DEB",
        "meta_object_id": "1999-025FAK",
        "meta_epoch": "2025-12-02T05:09:31.123584",
        "meta_mean_motion": 13.37303446,
        "meta_eccentricity": 0.0352227,
        "meta_inclination": 98.9376,
        "meta_ra_of_asc_node": 321.2954,
        "meta_arg_of_pericenter": 285.6992,
        "meta_mean_anomaly": 70.555,
        "meta_ephemeris_type": 0,
        "meta_classification_type": "U",
        "meta_norad_cat_id": 47009,
        "meta_element_set_no": 999,
        "meta_rev_at_epoch": 58668,
        "meta_bstar": 0.00057132,
        "meta_mean_motion_dot": 3.87e-06,
        "meta_mean_motion_ddot": 0,
        "tle_line1": "1 47009U 99025FAK 25336.21494356  .00000387  00000+0  57132-3 0  9996",
        "tle_line2": "2 47009  98.9376 321.2954 0352227 285.6992  70.5550 13.37303446586681"
      },
      "geometry": {
        "type": "Point",
        "coordinates": [
          132.91002228678266,
          -49.283643404757576
        ]
      }
    },
    {
      "type": "Feature",
      "properties": {
        "norad_id": 47012,
        "name": "FENGYUN 1C DEB",
        "group": "fengyun-1c-debris",
        "lat": 12.758070730097849,
        "lon": 39.757843310806,
        "alt_km": 953.8869730266788,
        "timestamp": "2025-12-04T15:47:54.389343+00:00",
        "meta_object_name": "FENGYUN 1C DEB",
        "meta_object_id": "1999-025FAN",
        "meta_epoch": "2025-11-21T11:34:23.982528",
        "meta_mean_motion": 13.77887873,
        "meta_eccentricity": 0.01636388,
        "meta_inclination": 98.7555,
        "meta_ra_of_asc_node": 205.6016,
        "meta_arg_of_pericenter": 120.2349,
        "meta_mean_anomaly": 241.5118,
        "meta_ephemeris_type": 0,
        "meta_classification_type": "U",
        "meta_norad_cat_id": 47012,
        "meta_element_set_no": 999,
        "meta_rev_at_epoch": 54280,
        "meta_bstar": 0.00045664705,
        "meta_mean_motion_dot": 4.67e-06,
        "meta_mean_motion_ddot": 0,
        "tle_line1": "1 47012U 99025FAN 25325.48222202  .00000467  00000+0  45665-3 0  9993",
        "tle_line2": "2 47012  98.7555 205.6016 0163638 120.2349 241.5118 13.77887873542803"
      },
      "geometry": {
        "type": "Point",
        "coordinates": [
          39.757843310806,
          12.758070730097849
        ]
      }
    },
    {
      "type": "Feature",
      "properties": {
        "norad_id": 47013,
        "name": "FENGYUN 1C DEB",
        "group": "fengyun-1c-debris",
        "lat": 18.377768537001753,
        "lon": 46.389665680343136,
        "alt_km": 847.9314705345123,
        "timestamp": "2025-12-04T15:47:54.389354+00:00",
        "meta_object_name": "FENGYUN 1C DEB",
        "meta_object_id": "1999-025FAP",
        "meta_epoch": "2025-11-16T11:10:59.954016",
        "meta_mean_motion": 14.24672933,
        "meta_eccentricity": 0.00559466,
        "meta_inclination": 98.0819,
        "meta_ra_of_asc_node": 32.3431,
        "meta_arg_of_pericenter": 238.0397,
        "meta_mean_anomaly": 121.5338,
        "meta_ephemeris_type": 0,
        "meta_classification_type": "U",
        "meta_norad_cat_id": 47013,
        "meta_element_set_no": 999,
        "meta_rev_at_epoch": 72885,
        "meta_bstar": 0.0028202138,
        "meta_mean_motion_dot": 6.632e-05,
        "meta_mean_motion_ddot": 0,
        "tle_line1": "1 47013U 99025FAP 25320.46597169  .00006632  00000+0  28202-2 0  9991",
        "tle_line2": "2 47013  98.0819  32.3431 0055946 238.0397 121.5338 14.24672933728853"
      },
      "geometry": {
        "type": "Point",
        "coordinates": [
          46.389665680343136,
          18.377768537001753
        ]
      }
    },
    {
      "type": "Feature",
      "properties": {
        "norad_id": 47015,
        "name": "FENGYUN 1C DEB",
        "group": "fengyun-1c-debris",
        "lat": -20.843817120512153,
        "lon": -148.76123524189305,
        "alt_km": 553.9305672266273,
        "timestamp": "2025-12-04T15:47:54.389365+00:00",
        "meta_object_name": "FENGYUN 1C DEB",
        "meta_object_id": "1999-025FAR",
        "meta_epoch": "2025-11-27T21:25:01.629408",
        "meta_mean_motion": 14.86966411,
        "meta_eccentricity": 0.0176465,
        "meta_inclination": 98.7125,
        "meta_ra_of_asc_node": 27.1652,
        "meta_arg_of_pericenter": 160.0571,
        "meta_mean_anomaly": 200.7655,
        "meta_ephemeris_type": 0,
        "meta_classification_type": "U",
        "meta_norad_cat_id": 47015,
        "meta_element_set_no": 999,
        "meta_rev_at_epoch": 64161,
        "meta_bstar": 0.00089165,
        "meta_mean_motion_dot": 0.00010559,
        "meta_mean_motion_ddot": 0,
        "tle_line1": "1 47015U 99025FAR 25331.89237997  .00010559  00000+0  89165-3 0  9991",
        "tle_line2": "2 47015  98.7125  27.1652 0176465 160.0571 200.7655 14.86966411641612"
      },
      "geometry": {
        "type": "Point",
        "coordinates": [
          -148.76123524189305,
          -20.843817120512153
        ]
      }
    },
    {
      "type": "Feature",
      "properties": {
        "norad_id": 47025,
        "name": "FENGYUN 1C DEB",
        "group": "fengyun-1c-debris",
        "lat": -62.743032061266106,
        "lon": -157.34899797106877,
        "alt_km": 742.8562831528725,
        "timestamp": "2025-12-04T15:47:54.389375+00:00",
        "meta_object_name": "FENGYUN 1C DEB",
        "meta_object_id": "1999-025FBB",
        "meta_epoch": "2025-12-02T01:41:08.457792",
        "meta_mean_motion": 14.46038389,
        "meta_eccentricity": 0.00405714,
        "meta_inclination": 99.0334,
        "meta_ra_of_asc_node": 181.9095,
        "meta_arg_of_pericenter": 28.306,
        "meta_mean_anomaly": 122.9233,
        "meta_ephemeris_type": 0,
        "meta_classification_type": "U",
        "meta_norad_cat_id": 47025,
        "meta_element_set_no": 999,
        "meta_rev_at_epoch": 62587,
        "meta_bstar": 0.0023139931,
        "meta_mean_motion_dot": 8.293e-05,
        "meta_mean_motion_ddot": 0,
        "tle_line1": "1 47025U 99025FBB 25336.07023678  .00008293  00000+0  23140-2 0  9998",
        "tle_line2": "2 47025  99.0334 181.9095 0040571  28.3060 122.9233 14.46038389625873"
      },
      "geometry": {
        "type": "Point",
        "coordinates": [
          -157.34899797106877,
          -62.743032061266106
        ]
      }
    }
  ]
}